[
  {
    "COMMENT": "GENERATED VIA SPACETRACK.ORG API",
    "ORIGINATOR": "18 SPCS",
    "NORAD_CAT_ID": "25260",
    "OBJECT_NAME": "SPOT 4",
    "OBJECT_TYPE": "PAYLOAD",
    "CLASSIFICATION_TYPE": "U",
    "INTLDES": "98017A",
    "EPOCH": "2023-04-28 07:18:57",
    "EPOCH_MICROSECONDS": "242016",
    "MEAN_MOTION": "14.54147297",
    "ECCENTRICITY": "0.0013503",
    "INCLINATION": "98.2608",
    "RA_OF_ASC_NODE": "211.9161",
    "ARG_OF_PERICENTER": "157.9424",
    "MEAN_ANOMALY": "202.2357",
    "EPHEMERIS_TYPE": "0",
    "ELEMENT_SET_NO": "999",
    "REV_AT_EPOCH": "31290",
    "BSTAR": "0.00015511",
    "MEAN_MOTION_DOT": "0.00000611",
    "MEAN_MOTION_DDOT": "0",
    "FILE": "3895657",
    "TLE_LINE0": "0 SPOT 4",
    "TLE_LINE1": "1 25260U 98017A   23118.30482919  .00000611  00000-0  15511-3 0  9995",
    "TLE_LINE2": "2 25260  98.2608 211.9161 0013503 157.9424 202.2357 14.54147297312905",
    "OBJECT_ID": "1998-017A",
    "OBJECT_NUMBER": "25260",
    "SEMIMAJOR_AXIS": "7090.272",
    "PERIOD": "99.027",
    "APOGEE": "721.711",
    "PERIGEE": "702.563",
    "DECAYED": "0"
  },
  {
    "COMMENT": "GENERATED VIA SPACETRACK.ORG API",
    "ORIGINATOR": "18 SPCS",
    "NORAD_CAT_ID": "25260",
    "OBJECT_NAME": "SPOT 4",
    "OBJECT_TYPE": "PAYLOAD",
    "CLASSIFICATION_TYPE": "U",
    "INTLDES": "98017A",
    "EPOCH": "2023-04-28 07:18:57",
    "EPOCH_MICROSECONDS": "242016",
    "MEAN_MOTION": "14.54147297",
    "ECCENTRICITY": "0.0013503",
    "INCLINATION": "98.2608",
    "RA_OF_ASC_NODE": "211.9161",
    "ARG_OF_PERICENTER": "157.9424",
    "MEAN_ANOMALY": "202.2357",
    "EPHEMERIS_TYPE": "0",
    "ELEMENT_SET_NO": "999",
    "REV_AT_EPOCH": "31266",
    "BSTAR": "0.00015511",
    "MEAN_MOTION_DOT": "0.00000611",
    "MEAN_MOTION_DDOT": "0",
    "FILE": "3895770",
    "TLE_LINE0": "0 SPOT 4",
    "TLE_LINE1": "1 25260U 98017A   23118.30482919  .00000611  00000-0  15511-3 0  9995",
    "TLE_LINE2": "2 25260  98.2608 211.9161 0013503 157.9424 202.2357 14.54147297312668",
    "OBJECT_ID": "1998-017A",
    "OBJECT_NUMBER": "25260",
    "SEMIMAJOR_AXIS": "7090.272",
    "PERIOD": "99.027",
    "APOGEE": "721.711",
    "PERIGEE": "702.563",
    "DECAYED": "0"
  },
  {
    "COMMENT": "GENERATED VIA SPACETRACK.ORG API",
    "ORIGINATOR": "18 SPCS",
    "NORAD_CAT_ID": "25260",
    "OBJECT_NAME": "SPOT 4",
    "OBJECT_TYPE": "PAYLOAD",
    "CLASSIFICATION_TYPE": "U",
    "INTLDES": "98017A",
    "EPOCH": "2023-04-29 03:07:58",
    "EPOCH_MICROSECONDS": "824480",
    "MEAN_MOTION": "14.54148299",
    "ECCENTRICITY": "0.0013562",
    "INCLINATION": "98.2608",
    "RA_OF_ASC_NODE": "212.7312",
    "ARG_OF_PERICENTER": "155.5041",
    "MEAN_ANOMALY": "204.6803",
    "EPHEMERIS_TYPE": "0",
    "ELEMENT_SET_NO": "999",
    "REV_AT_EPOCH": "31302",
    "BSTAR": "0.00013918",
    "MEAN_MOTION_DOT": "0.00000544",
    "MEAN_MOTION_DDOT": "0",
    "FILE": "3896253",
    "TLE_LINE0": "0 SPOT 4",
    "TLE_LINE1": "1 25260U 98017A   23119.13054195  .00000544  00000-0  13918-3 0  9992",
    "TLE_LINE2": "2 25260  98.2608 212.7312 0013562 155.5041 204.6803 14.54148299313025",
    "OBJECT_ID": "1998-017A",
    "OBJECT_NUMBER": "25260",
    "SEMIMAJOR_AXIS": "7090.269",
    "PERIOD": "99.027",
    "APOGEE": "721.750",
    "PERIGEE": "702.518",
    "DECAYED": "0"
  },
  {
    "COMMENT": "GENERATED VIA SPACETRACK.ORG API",
    "ORIGINATOR": "18 SPCS",
    "NORAD_CAT_ID": "25260",
    "OBJECT_NAME": "SPOT 4",
    "OBJECT_TYPE": "PAYLOAD",
    "CLASSIFICATION_TYPE": "U",
    "INTLDES": "98017A",
    "EPOCH": "2023-04-29 06:26:09",
    "EPOCH_MICROSECONDS": "84480",
    "MEAN_MOTION": "14.54148469",
    "ECCENTRICITY": "0.001357",
    "INCLINATION": "98.2608",
    "RA_OF_ASC_NODE": "212.867",
    "ARG_OF_PERICENTER": "155.093",
    "MEAN_ANOMALY": "205.0924",
    "EPHEMERIS_TYPE": "0",
    "ELEMENT_SET_NO": "999",
    "REV_AT_EPOCH": "31280",
    "BSTAR": "0.00013683",
    "MEAN_MOTION_DOT": "0.00000534",
    "MEAN_MOTION_DDOT": "0",
    "FILE": "3896517",
    "TLE_LINE0": "0 SPOT 4",
    "TLE_LINE1": "1 25260U 98017A   23119.26816070  .00000534  00000-0  13683-3 0  9992",
    "TLE_LINE2": "2 25260  98.2608 212.8670 0013570 155.0930 205.0924 14.54148469312807",
    "OBJECT_ID": "1998-017A",
    "OBJECT_NUMBER": "25260",
    "SEMIMAJOR_AXIS": "7090.268",
    "PERIOD": "99.027",
    "APOGEE": "721.755",
    "PERIGEE": "702.512",
    "DECAYED": "0"
  },
  {
    "COMMENT": "GENERATED VIA SPACETRACK.ORG API",
    "ORIGINATOR": "18 SPCS",
    "NORAD_CAT_ID": "25260",
    "OBJECT_NAME": "SPOT 4",
    "OBJECT_TYPE": "PAYLOAD",
    "CLASSIFICATION_TYPE": "U",
    "INTLDES": "98017A",
    "EPOCH": "2023-04-29 19:38:50",
    "EPOCH_MICROSECONDS": "100288",
    "MEAN_MOTION": "14.54149378",
    "ECCENTRICITY": "0.0013612",
    "INCLINATION": "98.2609",
    "RA_OF_ASC_NODE": "213.4106",
    "ARG_OF_PERICENTER": "153.4547",
    "MEAN_ANOMALY": "206.7349",
    "EPHEMERIS_TYPE": "0",
    "ELEMENT_SET_NO": "999",
    "REV_AT_EPOCH": "31312",
    "BSTAR": "0.00013874",
    "MEAN_MOTION_DOT": "0.00000542",
    "MEAN_MOTION_DDOT": "0",
    "FILE": "3896747",
    "TLE_LINE0": "0 SPOT 4",
    "TLE_LINE1": "1 25260U 98017A   23119.81863542  .00000542  00000-0  13874-3 0  9990",
    "TLE_LINE2": "2 25260  98.2609 213.4106 0013612 153.4547 206.7349 14.54149378313127",
    "OBJECT_ID": "1998-017A",
    "OBJECT_NUMBER": "25260",
    "SEMIMAJOR_AXIS": "7090.265",
    "PERIOD": "99.027",
    "APOGEE": "721.782",
    "PERIGEE": "702.479",
    "DECAYED": "0"
  },
  {
    "COMMENT": "GENERATED VIA SPACETRACK.ORG API",
    "ORIGINATOR": "18 SPCS",
    "NORAD_CAT_ID": "25260",
    "OBJECT_NAME": "SPOT 4",
    "OBJECT_TYPE": "PAYLOAD",
    "CLASSIFICATION_TYPE": "U",
    "INTLDES": "98017A",
    "EPOCH": "2023-04-30 00:36:05",
    "EPOCH_MICROSECONDS": "482080",
    "MEAN_MOTION": "14.54149578",
    "ECCENTRICITY": "0.0013624",
    "INCLINATION": "98.2609",
    "RA_OF_ASC_NODE": "213.6143",
    "ARG_OF_PERICENTER": "152.8443",
    "MEAN_ANOMALY": "207.3469",
    "EPHEMERIS_TYPE": "0",
    "ELEMENT_SET_NO": "999",
    "REV_AT_EPOCH": "31315",
    "BSTAR": "0.0001357",
    "MEAN_MOTION_DOT": "0.00000529",
    "MEAN_MOTION_DDOT": "0",
    "FILE": "3897043",
    "TLE_LINE0": "0 SPOT 4",
    "TLE_LINE1": "1 25260U 98017A   23120.02506345  .00000529  00000-0  13570-3 0  9998",
    "TLE_LINE2": "2 25260  98.2609 213.6143 0013624 152.8443 207.3469 14.54149578313156",
    "OBJECT_ID": "1998-017A",
    "OBJECT_NUMBER": "25260",
    "SEMIMAJOR_AXIS": "7090.265",
    "PERIOD": "99.027",
    "APOGEE": "721.790",
    "PERIGEE": "702.470",
    "DECAYED": "0"
  },
  {
    "COMMENT": "GENERATED VIA SPACETRACK.ORG API",
    "ORIGINATOR": "18 SPCS",
    "NORAD_CAT_ID": "25260",
    "OBJECT_NAME": "SPOT 4",
    "OBJECT_TYPE": "PAYLOAD",
    "CLASSIFICATION_TYPE": "U",
    "INTLDES": "98017A",
    "EPOCH": "2023-04-30 13:48:46",
    "EPOCH_MICROSECONDS": "479744",
    "MEAN_MOTION": "14.54150338",
    "ECCENTRICITY": "0.0013657",
    "INCLINATION": "98.261",
    "RA_OF_ASC_NODE": "214.1577",
    "ARG_OF_PERICENTER": "151.2395",
    "MEAN_ANOMALY": "208.9557",
    "EPHEMERIS_TYPE": "0",
    "ELEMENT_SET_NO": "999",
    "REV_AT_EPOCH": "31323",
    "BSTAR": "0.0001354",
    "MEAN_MOTION_DOT": "0.00000528",
    "MEAN_MOTION_DDOT": "0",
    "FILE": "3897380",
    "TLE_LINE0": "0 SPOT 4",
    "TLE_LINE1": "1 25260U 98017A   23120.57553796  .00000528  00000-0  13540-3 0  9996",
    "TLE_LINE2": "2 25260  98.2610 214.1577 0013657 151.2395 208.9557 14.54150338313230",
    "OBJECT_ID": "1998-017A",
    "OBJECT_NUMBER": "25260",
    "SEMIMAJOR_AXIS": "7090.262",
    "PERIOD": "99.027",
    "APOGEE": "721.810",
    "PERIGEE": "702.444",
    "DECAYED": "0"
  },
  {
    "COMMENT": "GENERATED VIA SPACETRACK.ORG API",
    "ORIGINATOR": "18 SPCS",
    "NORAD_CAT_ID": "25260",
    "OBJECT_NAME": "SPOT 4",
    "OBJECT_TYPE": "PAYLOAD",
    "CLASSIFICATION_TYPE": "U",
    "INTLDES": "98017A",
    "EPOCH": "2023-04-30 13:48:46",
    "EPOCH_MICROSECONDS": "479744",
    "MEAN_MOTION": "14.54150338",
    "ECCENTRICITY": "0.0013657",
    "INCLINATION": "98.261",
    "RA_OF_ASC_NODE": "214.1577",
    "ARG_OF_PERICENTER": "151.2395",
    "MEAN_ANOMALY": "208.9557",
    "EPHEMERIS_TYPE": "0",
    "ELEMENT_SET_NO": "999",
    "REV_AT_EPOCH": "31299",
    "BSTAR": "0.0001354",
    "MEAN_MOTION_DOT": "0.00000528",
    "MEAN_MOTION_DDOT": "0",
    "FILE": "3897442",
    "TLE_LINE0": "0 SPOT 4",
    "TLE_LINE1": "1 25260U 98017A   23120.57553796  .00000528  00000-0  13540-3 0  9996",
    "TLE_LINE2": "2 25260  98.2610 214.1577 0013657 151.2395 208.9557 14.54150338312992",
    "OBJECT_ID": "1998-017A",
    "OBJECT_NUMBER": "25260",
    "SEMIMAJOR_AXIS": "7090.262",
    "PERIOD": "99.027",
    "APOGEE": "721.810",
    "PERIGEE": "702.444",
    "DECAYED": "0"
  },
  {
    "COMMENT": "GENERATED VIA SPACETRACK.ORG API",
    "ORIGINATOR": "18 SPCS",
    "NORAD_CAT_ID": "25260",
    "OBJECT_NAME": "SPOT 4",
    "OBJECT_TYPE": "PAYLOAD",
    "CLASSIFICATION_TYPE": "U",
    "INTLDES": "98017A",
    "EPOCH": "2023-04-30 20:25:06",
    "EPOCH_MICROSECONDS": "975552",
    "MEAN_MOTION": "14.54150634",
    "ECCENTRICITY": "0.0013679",
    "INCLINATION": "98.261",
    "RA_OF_ASC_NODE": "214.4293",
    "ARG_OF_PERICENTER": "150.4202",
    "MEAN_ANOMALY": "209.7772",
    "EPHEMERIS_TYPE": "0",
    "ELEMENT_SET_NO": "999",
    "REV_AT_EPOCH": "31327",
    "BSTAR": "0.00013301",
    "MEAN_MOTION_DOT": "0.00000518",
    "MEAN_MOTION_DDOT": "0",
    "FILE": "3897669",
    "TLE_LINE0": "0 SPOT 4",
    "TLE_LINE1": "1 25260U 98017A   23120.85077518  .00000518  00000-0  13301-3 0  9994",
    "TLE_LINE2": "2 25260  98.2610 214.4293 0013679 150.4202 209.7772 14.54150634313271",
    "OBJECT_ID": "1998-017A",
    "OBJECT_NUMBER": "25260",
    "SEMIMAJOR_AXIS": "7090.261",
    "PERIOD": "99.027",
    "APOGEE": "721.825",
    "PERIGEE": "702.428",
    "DECAYED": "0"
  }
]